ONEWEB-0211             
1 48767U 21045A   26197.68665691  .00000096  00000+0  21842-3 0  9990
2 48767  87.8987 253.1982 0002702 105.1018 255.0412 13.16197910248324
ONEWEB-0223             
1 48768U 21045B   26198.08380167  .00000072  00000+0  15695-3 0  9991
2 48768  87.8991 253.2352 0002347 105.7345 254.4044 13.15548695248330
ONEWEB-0230             
1 48769U 21045C   26198.13133930  .00000096  00000+0  22208-3 0  9996
2 48769  87.8978 253.2371 0001931  96.1858 263.9492 13.15548686248609
ONEWEB-0237             
1 48770U 21045D   26198.12024288  .00000027  00000+0  38729-4 0  9992
2 48770  87.8983 253.2412 0002377  94.8968 265.2434 13.15548446248329
ONEWEB-0235             
1 48771U 21045E   26197.63853013 -.00000113  00000+0 -33542-3 0  9999
2 48771  87.8991 253.3254 0002254 107.7272 252.4104 13.15550006248259
ONEWEB-0242             
1 48772U 21045F   26198.08855480  .00000053  00000+0  10749-3 0  9995
2 48772  87.8995 253.2329 0001997 103.0317 257.1037 13.15548864248355
ONEWEB-0241             
1 48773U 21045G   26198.07589427  .00000162  00000+0  39593-3 0  9999
2 48773  87.8983 253.2504 0002406 104.6405 255.4992 13.15538926248268
ONEWEB-0243             
1 48774U 21045H   26198.10755189 -.00000025  00000+0 -10063-3 0  9995
2 48774  87.8981 253.2570 0001927 111.8859 248.2476 13.15551133248295
ONEWEB-0222             
1 48775U 21045J   26198.09092748 -.00000013  00000+0 -69335-4 0  9993
2 48775  87.8992 253.2298 0002219 101.3166 258.8214 13.15547104248330
ONEWEB-0244             
1 48776U 21045K   26197.66073439 -.00000010  00000+0 -61699-4 0  9994
2 48776  87.8995 253.3122 0002125 101.4832 258.6537 13.15547794248845
ONEWEB-0247             
1 48777U 21045L   26198.11388728 -.00000947  00000+0 -25495-2 0  9997
2 48777  87.8983 253.2502 0002181 120.8040 239.3305 13.15552389248342
ONEWEB-0245             
1 48778U 21045M   26198.10913966 -.00000079  00000+0 -24403-3 0  9990
2 48778  87.8990 253.2331 0002237  98.9950 261.1434 13.15549376248313
ONEWEB-0229             
1 48779U 21045N   26198.10439955 -.00000102  00000+0 -30611-3 0  9997
2 48779  87.8989 253.2313 0001995  99.7364 260.3992 13.15548006248342
ONEWEB-0228             
1 48780U 21045P   26198.13780679  .00000180  00000+0  44302-3 0  9990
2 48780  87.8994 253.2191 0002094  99.5965 260.5402 13.15548997248268
ONEWEB-0232             
1 48781U 21045Q   26198.11232635 -.00000105  00000+0 -31291-3 0  9995
2 48781  87.8992 253.2246 0002141  96.8341 263.3033 13.15547531248588
ONEWEB-0231             
1 48782U 21045R   26197.70985289 -.00000105  00000+0 -31190-3 0  9998
2 48782  87.8992 253.3159 0002258 103.1128 257.0255 13.15547626248229
ONEWEB-0234             
1 48783U 21045S   26198.12803296  .00000074  00000+0  16275-3 0  9993
2 48783  87.8992 253.2152 0002695  85.1685 274.9753 13.15547475248418
ONEWEB-0238             
1 48784U 21045T   26198.12828987  .00000107  00000+0  25032-3 0  9996
2 48784  87.8992 253.2113 0002403  91.1590 268.9815 13.15548629248318
ONEWEB-0240             
1 48785U 21045U   26197.69320722  .00000079  00000+0  17510-3 0  9992
2 48785  87.8995 253.3074 0002354 101.7824 258.3571 13.15549574248280
ONEWEB-0246             
1 48786U 21045V   26198.14401335  .00000214  00000+0  53535-3 0  9992
2 48786  87.8994 253.2212 0002009 100.8004 259.3353 13.15548038248216
ONEWEB-0210             
1 48787U 21045W   26198.11865971  .00000033  00000+0  54571-4 0  9991
2 48787  87.8992 253.2238 0001891 122.5506 237.5808 13.15548059248259
ONEWEB-0214             
1 48788U 21045X   26198.12736575  .00000098  00000+0  22702-3 0  9991
2 48788  87.8988 253.2193 0001778 103.5621 256.5708 13.15547217248228
ONEWEB-0221             
1 48789U 21045Y   26197.67816476 -.00001578  00000+0 -42258-2 0  9993
2 48789  87.8994 253.3169 0002105 108.3425 251.7934 13.15556810248250
ONEWEB-0213             
1 48790U 21045Z   26198.12341415  .00000061  00000+0  12863-3 0  9996
2 48790  87.8988 253.2311 0002109 105.7840 254.3523 13.15548664248373
ONEWEB-0212             
1 48791U 21045AA  26197.64408505 -.00000126  00000+0 -36901-3 0  9990
2 48791  87.8992 253.3210 0002145  96.6558 263.4816 13.15546749248303
ONEWEB-0227             
1 48792U 21045AB  26198.09964530 -.00000077  00000+0 -23874-3 0  9996
2 48792  87.8989 253.2302 0002122  98.7676 261.3695 13.15548232248312
ONEWEB-0226             
1 48793U 21045AC  26198.09330616 -.00000012  00000+0 -66173-4 0  9998
2 48793  87.8990 253.2360 0002031 103.8240 256.3117 13.15548389248285
ONEWEB-0224             
1 48794U 21045AD  26198.13292463  .00000167  00000+0  40845-3 0  9997
2 48794  87.8981 253.2606 0002981  96.6448 263.5022 13.15548615248212
ONEWEB-0233             
1 48795U 21045AE  26198.13752885  .00000176  00000+0  43248-3 0  9997
2 48795  87.8980 253.2669 0002278 103.6066 256.5319 13.15550569248239
ONEWEB-0190             
1 48796U 21045AF  26198.12499708 -.00000005  00000+0 -47096-4 0  9998
2 48796  87.8989 253.2329 0002324 114.5599 245.5774 13.15549312248301
